<?xml version="1.0" encoding="UTF-8"?>
<kml xmlns="http://www.opengis.net/kml/2.2" xmlns:gx="http://www.google.com/kml/ext/2.2" xmlns:kml="http://www.opengis.net/kml/2.2" xmlns:atom="http://www.w3.org/2005/Atom">
<Document>
	<name>perimetro.kml</name>
	<Schema name="Comunas_de_Chile" id="Comunas_de_Chile">
		<SimpleField type="int" name="FID">
		</SimpleField>
		<SimpleField type="int" name="region">
		</SimpleField>
		<SimpleField type="int" name="cut">
		</SimpleField>
		<SimpleField type="string" name="region_1">
		</SimpleField>
		<SimpleField type="int" name="ine">
		</SimpleField>
		<SimpleField type="string" name="comuna">
		</SimpleField>
		<SimpleField type="string" name="provincia">
		</SimpleField>
		<SimpleField type="float" name="shape_leng">
		</SimpleField>
		<SimpleField type="int" name="cont">
		</SimpleField>
		<SimpleField type="float" name="shape_le_1">
		</SimpleField>
		<SimpleField type="float" name="shape_area">
		</SimpleField>
		<SimpleField type="float" name="Shape__Area">
		</SimpleField>
		<SimpleField type="float" name="Shape__Length">
		</SimpleField>
	</Schema>
	<Placemark id="Comunas_de_Chile.8793">
		<name>Illapel</name>
		<Style>
			<LineStyle>
				<color>ff0000ff</color>
			</LineStyle>
			<PolyStyle>
				<fill>0</fill>
			</PolyStyle>
		</Style>
		<ExtendedData>
			<SchemaData schemaUrl="#Comunas_de_Chile">
				<SimpleData name="FID">8793</SimpleData>
				<SimpleData name="region">4</SimpleData>
				<SimpleData name="cut">4201</SimpleData>
				<SimpleData name="region_1">IV</SimpleData>
				<SimpleData name="ine">270</SimpleData>
				<SimpleData name="comuna">ILLAPEL</SimpleData>
				<SimpleData name="provincia">CHOAPA</SimpleData>
				<SimpleData name="shape_leng">340839.198933</SimpleData>
				<SimpleData name="cont">0</SimpleData>
				<SimpleData name="shape_le_1">340839.814956</SimpleData>
				<SimpleData name="shape_area">2628351567.29</SimpleData>
				<SimpleData name="Shape__Area">3629911785.93555</SimpleData>
				<SimpleData name="Shape__Length">400579.511381894</SimpleData>
			</SchemaData>
		</ExtendedData>
		<Polygon>
			<outerBoundaryIs>
				<LinearRing>
					<coordinates>
						-70.5441586562892,-31.3045995390125,0 -70.5446326192596,-31.3056044890936,0 -70.5445656248768,-31.3076934533461,0 -70.5454977172688,-31.3089874423714,0 -70.54633781889051,-31.3108044933803,0 -70.54615375810771,-31.3119385183017,0 -70.5455708010238,-31.3134244941011,0 -70.5446888419313,-31.31526245318319,0 -70.5442268643276,-31.3179644858357,0 -70.5430608630862,-31.3210245337214,0 -70.5428169229918,-31.32468152566,0 -70.5427450283324,-31.326542577943,0 -70.543191017176,-31.3290605621296,0 -70.5432250889496,-31.3311485740092,0 -70.54294018799909,-31.3322825484818,0 -70.5420550570535,-31.3339465940361,0 -70.54076415459561,-31.3355285568447,0 -70.54047816499759,-31.3366636153115,0 -70.5402831633987,-31.3371005924396,0 -70.5407011291834,-31.3378786331614,0 -70.5414252097595,-31.3388275402246,0 -70.5420632415731,-31.3406465864728,0 -70.5420982833044,-31.3428215504151,0 -70.5410213306139,-31.3450965700975,0 -70.5394212284457,-31.3464216021829,0 -70.5376182922306,-31.3476606451377,0 -70.5351092021871,-31.349169712727,0 -70.5338021397188,-31.3497947386137,0 -70.5333021987054,-31.350235708059,0 -70.5333151130265,-31.3510187020205,0 -70.5327511822606,-31.3537226974954,0 -70.5324122255856,-31.3578167062083,0 -70.53154825880991,-31.3605057117199,0 -70.5302542550841,-31.3620007343861,0 -70.5290572557344,-31.3631458056307,0 -70.5276512324579,-31.3639457956809,0 -70.5269462457329,-31.3642158062721,0 -70.52736824434351,-31.3652548117348,0 -70.5286503961832,-31.3693287771856,0 -70.53013154213031,-31.3731397198739,0 -70.5327336865912,-31.3777866951915,0 -70.53460381124231,-31.380635706506,0 -70.5357398670839,-31.3819276577032,0 -70.536157907505,-31.3827056868673,0 -70.5361669270098,-31.3832277173106,0 -70.5360729644753,-31.3836636735218,0 -70.5359800002544,-31.38418665595299,0 -70.536895002424,-31.384350719403,0 -70.5378129778866,-31.3849356493272,0 -70.53913905908639,-31.3854416072369,0 -70.5397540781177,-31.3858696823334,0 -70.5396641800812,-31.386566651366,0 -70.53960114773879,-31.3889166218058,0 -70.53885120662009,-31.3926666175925,0 -70.5374842921094,-31.3957666512692,0 -70.5359202556191,-31.3993527445741,0 -70.5337402255079,-31.4024247538205,0 -70.5329712661172,-31.4050437743411,0 -70.5326992526229,-31.4070487509778,0 -70.53301935868549,-31.4080017993588,0 -70.5336323790778,-31.408255704501,0 -70.5344424418177,-31.4082457403385,0 -70.537476438992,-31.4077746608557,0 -70.5410235893458,-31.4076446489136,0 -70.5439607360091,-31.4074355504292,0 -70.5453818042424,-31.4075925354668,0 -70.5466098269309,-31.4082735205875,0 -70.5470208172415,-31.4086165126567,0 -70.5495609631898,-31.4089344989488,0 -70.5530250659817,-31.4099364090237,0 -70.55516823686381,-31.4107804180368,0 -70.5559902211225,-31.4114664159903,0 -70.5557952738273,-31.4119044170859,0 -70.55569921401801,-31.4122534447132,0 -70.5559422817512,-31.4146863685992,0 -70.55667237398789,-31.4158953596407,0 -70.5581404412635,-31.418919350475,0 -70.5588725559119,-31.4203024114049,0 -70.55959357020009,-31.4209893416845,0 -70.56000963414409,-31.4215933747506,0 -70.5603336732178,-31.4221613772504,0 -70.5598406072836,-31.4230373734152,0 -70.5590366600896,-31.4234823414876,0 -70.5584405556809,-31.424185387105,0 -70.5578465874117,-31.42506242371759,0 -70.55745559539891,-31.4259373485326,0 -70.5574705794769,-31.4268943937714,0 -70.5569786153545,-31.4277703659751,0 -70.5560736305444,-31.4282164557206,0 -70.5528354578498,-31.4286904781343,0 -70.5517204249436,-31.4287045252299,0 -70.551214438138,-31.4287975278666,0 -70.5511193919897,-31.4291465215892,0 -70.55133446608779,-31.4299275020326,0 -70.5508454826939,-31.4309775265413,0 -70.5508664459522,-31.4322825411687,0 -70.5506765414757,-31.4330675088329,0 -70.5497815172982,-31.4341225322514,0 -70.5490814917702,-31.4347405452035,0 -70.5486904913588,-31.4356145479134,0 -70.54860848044579,-31.4368335735535,0 -70.5487235017728,-31.4376155695983,0 -70.5493445127026,-31.4383915552606,0 -70.55087566331829,-31.4389814974321,0 -70.5512896740173,-31.4394984541635,0 -70.55142171430241,-31.4413245227907,0 -70.5504327559597,-31.4429025693971,0 -70.5496486652644,-31.4445655254424,0 -70.54938676278179,-31.447091544089,0 -70.5498367968456,-31.4498315798059,0 -70.5501598729707,-31.4509585391214,0 -70.5510888762329,-31.4519045354653,0 -70.5523229540057,-31.4529344899215,0 -70.5554870990493,-31.4541133932861,0 -70.5572152342047,-31.4543533762488,0 -70.559059306205,-31.4554623629478,0 -70.5609013713145,-31.4563973250324,0 -70.561525397905,-31.4573463120646,0 -70.56266947053631,-31.459073338623,0 -70.5641306066929,-31.4614912818465,0 -70.5650536290868,-31.4620892760267,0 -70.5658807231658,-31.463036295542,0 -70.5666227273222,-31.464941300926,0 -70.56714273376051,-31.4657182468103,0 -70.5684759109442,-31.4665712811423,0 -70.5695189086577,-31.4682992781372,0 -70.56954796240301,-31.4704442246666,0 -70.5689839924305,-31.4731482365838,0 -70.56809804294809,-31.4747252399768,0 -70.5667979711184,-31.4758723049612,0 -70.5642919487082,-31.4777303352642,0 -70.5628889066724,-31.47879138608659,0 -70.56208494882399,-31.4792363811404,0 -70.5615878963208,-31.4798513576448,0 -70.56189690520191,-31.480108391136,0 -70.5622069415337,-31.480452358538,0 -70.5635800678881,-31.4837423392827,0 -70.5642341107785,-31.4864313732032,0 -70.56481319458641,-31.4907753083722,0 -70.56610943280739,-31.4962002953903,0 -70.56587949119211,-31.5003383374478,0 -70.5644005065198,-31.5024533430202,0 -70.5608504443608,-31.5059903664843,0 -70.5583373396323,-31.5089154641736,0 -70.5562763650927,-31.5110364987569,0 -70.55419923574929,-31.5121604968866,0 -70.5536332500739,-31.5131655580353,0 -70.5541173788565,-31.5142575285956,0 -70.55636848237241,-31.516625425352,0 -70.5569704574301,-31.5178164387391,0 -70.5573434920129,-31.5192094393956,0 -70.5581286828231,-31.5245454381831,0 -70.5580467232147,-31.526643455224,0 -70.5579587486598,-31.5283414536357,0 -70.5569417705416,-31.530249410579,0 -70.55637480420449,-31.5311554410506,0 -70.5568738645776,-31.533145428881,0 -70.5588029623292,-31.5371144447614,0 -70.5600311403237,-31.540893405667,0 -70.56006413244521,-31.5428894368571,0 -70.559862197464,-31.5447884550692,0 -70.5589441658253,-31.5455974640873,0 -70.5586031263844,-31.5461004799512,0 -70.5589762108236,-31.5474934667437,0 -70.560685422905,-31.55226443833149,0 -70.56168349478951,-31.55690235842861,0 -70.56171854454389,-31.556970399846,0 -70.56289455014119,-31.5571913915789,0 -70.56661265624039,-31.5563973278576,0 -70.5697407903245,-31.5558142687239,0 -70.5712548125215,-31.5550462917377,0 -70.5734318383916,-31.5533852043023,0 -70.5765269654578,-31.5508281709158,0 -70.5790149960163,-31.5474611656568,0 -70.5816990090204,-31.5457261081835,0 -70.5833080153317,-31.5455700627768,0 -70.58542713381701,-31.5455429963952,0 -70.58865129633951,-31.54564000437909,0 -70.59017834629149,-31.5456889522711,0 -70.5918593926631,-31.544782905868,0 -70.59508346214049,-31.5423488578204,0 -70.5959074073123,-31.5409768730327,0 -70.5968964379542,-31.5392618217786,0 -70.597892475794,-31.5380228205282,0 -70.60041647930009,-31.5368337771968,0 -70.60277761476981,-31.5360547601308,0 -70.60667070026599,-31.5356657328925,0 -70.6101468025748,-31.5356216544074,0 -70.6137979752918,-31.5359166115253,0 -70.62034919966089,-31.5371954672483,0 -70.6224863007488,-31.5381904312259,0 -70.62373241848169,-31.5391274885694,0 -70.6242904526132,-31.541981445815,0 -70.62424952298031,-31.5445014739478,0 -70.6239475454898,-31.5466854683914,0 -70.624490627162,-31.548653412512,0 -70.625373718961,-31.550685391972,0 -70.6243357013922,-31.5543764565314,0 -70.6233898137795,-31.5585434690638,0 -70.6238118336563,-31.560853478393,0 -70.624172895344,-31.5621434598526,0 -70.625721998408,-31.5634174363412,0 -70.62905017480961,-31.5646013572008,0 -70.6317853110979,-31.5657922946984,0 -70.63392933534981,-31.5671273079063,0 -70.6355695009223,-31.5687412610014,0 -70.63661258352499,-31.5702262602824,0 -70.6371636371416,-31.5726022047356,0 -70.6382066715839,-31.5740192595545,0 -70.63976973100991,-31.5761112463329,0 -70.6423239079429,-31.5790751441241,0 -70.6443970161869,-31.5811591485595,0 -70.64561814433949,-31.5830511293953,0 -70.6460742038703,-31.5848841279618,0 -70.6458732114225,-31.5879511413335,0 -70.6454823103529,-31.5897951569883,0 -70.6452073583246,-31.5934771595855,0 -70.64437245756061,-31.5990721833852,0 -70.6447804609582,-31.600566169971,0 -70.64676757931829,-31.6025831166583,0 -70.6484196458383,-31.6048780641344,0 -70.649733839153,-31.607176078306,0 -70.6501028716043,-31.6088740488114,0 -70.65132692373621,-31.6109020467666,0 -70.6531540472505,-31.6134659831428,0 -70.6544571345727,-31.6151520395792,0 -70.6566021946489,-31.6164869770369,0 -70.65930333559589,-31.6180859029415,0 -70.661782488772,-31.6190758830996,0 -70.6659416315118,-31.6190897971298,0 -70.6673847074356,-31.6191388001922,0 -70.6692598158439,-31.61959077316831,0 -70.6723328897389,-31.6205726909242,0 -70.6753140481175,-31.621146639633,0 -70.68086326402759,-31.6229805776041,0 -70.68307237917981,-31.6230876041569,0 -70.687850541961,-31.6245224940365,0 -70.6926697173711,-31.6258214286215,0 -70.6966089752227,-31.6277443786687,0 -70.7010271015581,-31.628025304469,0 -70.70400325980449,-31.6283262267271,0 -70.7064993837084,-31.6302001892536,0 -70.70883554603761,-31.6326211738873,0 -70.71056860438701,-31.6345731013509,0 -70.7126397090006,-31.6364520922238,0 -70.7143487691922,-31.6370420824529,0 -70.715784832683,-31.6366820888371,0 -70.71804283036261,-31.6348130689752,0 -70.7223769337936,-31.6305319866961,0 -70.724834978416,-31.628046934572,0 -70.7284450586736,-31.6258868723488,0 -70.73095414748479,-31.6238778384748,0 -70.73346521060211,-31.6220047653808,0 -70.73614024301131,-31.619788700847,0 -70.73832123684311,-31.6183966662887,0 -70.7413643742009,-31.6177426311849,0 -70.74373745339039,-31.6175735841614,0 -70.7465405331656,-31.6177395777842,0 -70.7489236677178,-31.6181154946842,0 -70.75120672855449,-31.6176764946236,0 -70.7539107735689,-31.6170254492209,0 -70.7553068891313,-31.6168023932642,0 -70.7568279138775,-31.6164404207646,0 -70.7585098868003,-31.6156683793548,0 -70.7600220470709,-31.6148303878632,0 -70.76086001776591,-31.6142743567743,0 -70.7612820422133,-31.6141323402361,0 -70.7623061060042,-31.6144583704015,0 -70.76360008700409,-31.6155303595388,0 -70.7648901482828,-31.6164662654021,0 -70.7663522531987,-31.6174672384296,0 -70.7680573054807,-31.6179202812691,0 -70.77009945431109,-31.6181642363125,0 -70.7720505569776,-31.6181371738677,0 -70.7741685328681,-31.617972177311,0 -70.7762056147052,-31.6179431404127,0 -70.7779097606127,-31.6183281348141,0 -70.778632739719,-31.6186920510277,0 -70.7812598362412,-31.6204610523705,0 -70.78281198610109,-31.621733987137,0 -70.7851421178507,-31.6237439957924,0 -70.7875952742088,-31.6255489410006,0 -70.7898393353032,-31.627491866909,0 -70.7930064865845,-31.6288778723739,0 -70.79582365306671,-31.629723800178,0 -70.79822366737569,-31.6309848047073,0 -70.8011528778276,-31.6331907419901,0 -70.8026149817851,-31.6341917482673,0 -70.805103095823,-31.635586671652,0 -70.8079262533354,-31.6367046440488,0 -70.81123530237601,-31.6366575548112,0 -70.8159705214042,-31.6357044878395,0 -70.8216106721035,-31.6354884686042,0 -70.8236467132039,-31.6354593964296,0 -70.82661783333791,-31.6354843745112,0 -70.8287479803749,-31.6358623118461,0 -70.83037200934641,-31.6364522355574,0 -70.8324291387714,-31.6374442677003,0 -70.8352442084131,-31.638153216654,0 -70.83787536383591,-31.6381831954427,0 -70.84134547433359,-31.6376570904835,0 -70.844628547799,-31.6362470980222,0 -70.8473975771181,-31.634641060606,0 -70.84962561664931,-31.6335869846368,0 -70.8524287417887,-31.6336828878996,0 -70.8550808967195,-31.6347339293226,0 -70.8591190907685,-31.6371948875989,0 -70.8623992806229,-31.6399388186027,0 -70.8658484266637,-31.6426127113809,0 -70.8687055738144,-31.64543165310119,0 -70.87425887896801,-31.64718861549879,0 -70.87913205623801,-31.6488884983477,0 -70.882504236815,-31.6498595228885,0 -70.8847382691135,-31.651189480335,0 -70.8873245106772,-31.6531263919543,0 -70.8896545442219,-31.6549984008996,0 -70.89146571866451,-31.6564013431348,0 -70.89370279654879,-31.6578672995259,0 -70.89576188491149,-31.6589262648474,0 -70.8986559560736,-31.6592911918422,0 -70.90162807127631,-31.6593152140319,0 -70.9021800837467,-31.6593071651012,0 -70.90481519758811,-31.6594721648156,0 -70.9066923149946,-31.6599211056012,0 -70.90815538078451,-31.660920129863,0 -70.9095444357288,-31.6623980288007,0 -70.91120755650149,-31.664825026783,0 -70.9122646335825,-31.6667160227257,0 -70.9133826637141,-31.6673800102841,0 -70.9150647803806,-31.66660602284099,0 -70.91630977876549,-31.6652249293661,0 -70.91738781902529,-31.663982918489,0 -70.919221778459,-31.6623209063009,0 -70.92122387774469,-31.6605878940344,0 -70.92272882166451,-31.65947586861749,0 -70.9244999754408,-31.6589038165628,0 -70.9275560485742,-31.6588577737503,0 -70.9298510907615,-31.6590277497969,0 -70.93180119799089,-31.6588616730992,0 -70.93357425874341,-31.6584266614634,0 -70.9366143467288,-31.6576316305337,0 -70.939573443905,-31.6570416053059,0 -70.94177754699589,-31.65687151475541,0 -70.9424335993795,-31.6578155685465,0 -70.9429656305016,-31.658896547787,0 -70.9440237074096,-31.6607875219754,0 -70.9456028127007,-31.663215527857,0 -70.9464908192832,-31.6651085323036,0 -70.94686490851601,-31.6667374978349,0 -70.9482730073226,-31.6690994325996,0 -70.950956203852,-31.6715784188029,0 -70.95380728821971,-31.6739183877139,0 -70.9583525212005,-31.676027262652,0 -70.9620566706661,-31.6765152312404,0 -70.9651028029357,-31.6759921737349,0 -70.9691529512376,-31.6747720899966,0 -70.972109929979,-31.6741130705228,0 -70.9739620947545,-31.6733350408244,0 -70.9770751688157,-31.6719930208925,0 -70.9786581852653,-31.6705380167031,0 -70.97930910950539,-31.6692350102684,0 -70.97979017429481,-31.6678650085335,0 -70.9804441615989,-31.6666969699987,0 -70.9824712031878,-31.6661889645255,0 -70.98443929787599,-31.6669069191783,0 -70.98616640611149,-31.6682428613157,0 -70.9883845235839,-31.6687528219774,0 -70.99190558866729,-31.6666548188483,0 -70.9950965589712,-31.6629957641867,0 -70.9974975828133,-31.6601657290884,0 -70.99812859276641,-31.657908650176,0 -70.9986876121762,-31.6562646862329,0 -70.999360574028,-31.6559826469731,0 -71.0009036559516,-31.6566396432423,0 -71.0037077388685,-31.6567995680359,0 -71.0064238434414,-31.6567565269352,0 -71.009300984947,-31.6563024756614,0 -71.01064100141291,-31.6554644462017,0 -71.0114780477374,-31.6549064538688,0 -71.0129320366804,-31.6554284122102,0 -71.014237120738,-31.6569064568784,0 -71.0165043550186,-31.6596624492667,0 -71.0173183508977,-31.6619654056922,0 -71.0181924024435,-31.6631083648879,0 -71.0198954755959,-31.6633543575578,0 -71.0219355716394,-31.6634583336859,0 -71.0271997741888,-31.663511247282,0 -71.0282657796857,-31.6636982507517,0 -71.0288848801351,-31.6648461709965,0 -71.02869486871739,-31.6678452003417,0 -71.0288219359071,-31.6697502229303,0 -71.0295319818257,-31.6711691878205,0 -71.0316761055543,-31.6721571713757,0 -71.03272623293439,-31.6735701608986,0 -71.0308312075861,-31.6762562003962,0 -71.0275781835652,-31.6828462617873,0 -71.02751729970559,-31.6859112419912,0 -71.027538231572,-31.6868642057809,0 -71.0287573287867,-31.688275252587,0 -71.0311684455568,-31.6898031312708,0 -71.0331335599201,-31.6903161602148,0 -71.0346585874896,-31.6901560804852,0 -71.0362535832186,-31.6893130818406,0 -71.03792868269031,-31.6882650181948,0 -71.04013380795899,-31.6880940219772,0 -71.042696871045,-31.6888019787927,0 -71.0447740087162,-31.6906069892218,0 -71.049271204249,-31.6942809261568,0 -71.0503472897848,-31.6968508363917,0 -71.0511354088792,-31.6979279011452,0 -71.05310447125051,-31.6986458389394,0 -71.0547185442399,-31.6986878473706,0 -71.05819260620549,-31.6982907698082,0 -71.061739765632,-31.6974167336312,0 -71.0631377248442,-31.6972576490374,0 -71.06510382337309,-31.6978386180696,0 -71.06639889253459,-31.6987716361273,0 -71.0674590179573,-31.7005926466081,0 -71.0684390658363,-31.7026876162843,0 -71.06940217005869,-31.7039655740335,0 -71.0700272504473,-31.705317562242,0 -71.07074426457309,-31.7070085375445,0 -71.0712823224675,-31.708293579624,0 -71.0724903258909,-31.7091595736236,0 -71.07513346669511,-31.709593526961,0 -71.0777655508615,-31.7095504715683,0 -71.0808326998452,-31.7099773936436,0 -71.08264377951529,-31.7111733871468,0 -71.0842178573884,-31.7131903232217,0 -71.0875080430858,-31.7159972955343,0 -71.0909192651801,-31.7184612585804,0 -71.0927563285958,-31.7208142280677,0 -71.0936434027489,-31.7225021923307,0 -71.0936845251788,-31.7243402316715,0 -71.0938975412825,-31.7262431885377,0 -71.0946105805446,-31.727730239963,0 -71.0950086939242,-31.7303112015088,0 -71.0952866548092,-31.7313281815982,0 -71.0947087307979,-31.7320871944548,0 -71.09311664011889,-31.7330661805813,0 -71.0919546116658,-31.7343112047229,0 -71.0912785929772,-31.7363652069263,0 -71.09088968357359,-31.7379382803614,0 -71.09210272331769,-31.7390072102255,0 -71.0940838913772,-31.7402012113939,0 -71.0953809235303,-31.7412011649976,0 -71.0960159569873,-31.7429611503228,0 -71.0931579284545,-31.7443701699325,0 -71.0894377680897,-31.7451803204386,0 -71.0882757782767,-31.7464252955884,0 -71.0875377450585,-31.7475953215349,0 -71.08734077471431,-31.7501863229898,0 -71.08672683162661,-31.7531242958165,0 -71.0866539205213,-31.7555773497351,0 -71.0859399370019,-31.7578363362475,0 -71.08580698791459,-31.7594722963532,0 -71.0856689793694,-31.7609053323508,0 -71.0858619782891,-31.761923343606,0 -71.08681805297959,-31.7628613099742,0 -71.08810607116391,-31.7634532553548,0 -71.0892331818218,-31.7644563176032,0 -71.0892612378648,-31.7656812376544,0 -71.08946124091,-31.7670402530394,0 -71.090029342359,-31.7696182645004,0 -71.0900664041333,-31.7712522421695,0 -71.09185656009301,-31.7771471927758,0 -71.0925746009919,-31.7788382551561,0 -71.0923426090251,-31.7798632544349,0 -71.09092062685011,-31.7809082503931,0 -71.08886860690301,-31.7841423038325,0 -71.0869886150606,-31.7875103335056,0 -71.085644646281,-31.7920273712141,0 -71.0843376233879,-31.7962703338404,0 -71.084286692497,-31.7977693896627,0 -71.08575677719909,-31.7989033187097,0 -71.08738883407131,-31.7996253493469,0 -71.08952590561201,-31.8001352364476,0 -71.0918310240161,-31.8005742263867,0 -71.0935561474447,-31.8016352317556,0 -71.0950452457639,-31.803585153603,0 -71.0955072753554,-31.8052121397987,0 -71.09553925093979,-31.8066421783565,0 -71.096352350381,-31.8087391393916,0 -71.0971464186966,-31.8100201698247,0 -71.0991805595698,-31.8116211119422,0 -71.1005686442638,-31.8128241291965,0 -71.1009506771553,-31.8146561525465,0 -71.09981265824661,-31.8169901212412,0 -71.0986717405498,-31.8191881109251,0 -71.09861272705371,-31.820347177911,0 -71.1000888161599,-31.821685102989,0 -71.1005277905585,-31.8222900818348,0 -71.0998828999514,-31.82386712687959,0 -71.09772376627051,-31.8261501891046,0 -71.09564581284781,-31.8282951619669,0 -71.0930647539718,-31.8326282646752,0 -71.0900047465949,-31.836492245776,0 -71.0885498043048,-31.8398533151109,0 -71.08836079392231,-31.8427842766526,0 -71.08900793076521,-31.8450892962303,0 -71.0903169746078,-31.8465652616392,0 -71.091321061851,-31.8477062160269,0 -71.092799171385,-31.8491121883278,0 -71.09369121257519,-31.8509361869104,0 -71.0938252639546,-31.8531132277361,0 -71.0934693351859,-31.8561842282039,0 -71.0916103376524,-31.8605042489515,0 -71.0910603849949,-31.8663022542137,0 -71.09112655302491,-31.8711362538549,0 -71.09210559769021,-31.8730262042846,0 -71.0924846898599,-31.8747222650112,0 -71.0916027444636,-31.8771202294497,0 -71.0884605995092,-31.879722302216,0 -71.0892616646903,-31.8796592591949,0 -71.09221876564381,-31.8794632269118,0 -71.09462089283021,-31.8792752147038,0 -71.0967669092412,-31.8786961368708,0 -71.0984650089012,-31.8787671467189,0 -71.10180406261721,-31.8791071117719,0 -71.10451120205769,-31.8787660332647,0 -71.1090063407059,-31.8783459925231,0 -71.11232747873311,-31.8778958815416,0 -71.115102505717,-31.8778499106184,0 -71.1210687856053,-31.8783917546962,0 -71.1237999306103,-31.87908672293459,0 -71.1261649970926,-31.8799857175716,0 -71.12735905221,-31.8809036442375,0 -71.1296571970355,-31.8816056398434,0 -71.1328742812115,-31.8819466278859,0 -71.1348744178275,-31.8830985391769,0 -71.13786753340069,-31.8844304938415,0 -71.14003258971189,-31.8846905298803,0 -71.1445388114291,-31.886095420341,0 -71.1507259821268,-31.8868302637116,0 -71.1540612206568,-31.8895883003396,0 -71.1583485627789,-31.896181222116,0 -71.1608196983801,-31.8989041145538,0 -71.1627537843512,-31.8998091028136,0 -71.16468379314369,-31.9005661347437,0 -71.1657929262978,-31.9004481092631,0 -71.1677429476819,-31.8994280676551,0 -71.17268708259419,-31.8984050012302,0 -71.1754951815213,-31.8971229598823,0 -71.17686920929199,-31.8951739427995,0 -71.17800117121929,-31.8934759091886,0 -71.1797442011619,-31.891470839902,0 -71.1804982038953,-31.8894338546804,0 -71.1807561897317,-31.8873057873437,0 -71.1828771554525,-31.88435683831,0 -71.1846381985545,-31.8805247695514,0 -71.18649415535469,-31.8781227258808,0 -71.1880051999199,-31.8768126779924,0 -71.18996219553129,-31.8760876587292,0 -71.19210334205221,-31.8753106533531,0 -71.1941703843153,-31.8740406412922,0 -71.19597738106,-31.8721826123726,0 -71.1970143991356,-31.8703875844854,0 -71.1979633807332,-31.8687905943667,0 -71.1999634097795,-31.8672755214351,0 -71.2015984097077,-31.8659635333669,0 -71.203067503418,-31.8654935280557,0 -71.205889555544,-31.8648514135094,0 -71.2087006280656,-31.8637164340403,0 -71.2112537689363,-31.8621423324988,0 -71.21318173576439,-31.8602323788581,0 -71.21762184587109,-31.85630325943781,0 -71.2195518485793,-31.8544921941636,0 -71.22004184611831,-31.8517682048719,0 -71.2196737805214,-31.8492572413994,0 -71.21956469918879,-31.8472842481426,0 -71.2206607406728,-31.846721256714,0 -71.22190174731431,-31.8470451888451,0 -71.22364785495429,-31.8478051875492,0 -71.2261420227121,-31.8489460991204,0 -71.22887011937,-31.849540101261,0 -71.2303381714477,-31.8490210258727,0 -71.2311751134245,-31.8479200904627,0 -71.23210818231099,-31.84568206802,0 -71.2336500747351,-31.8418530435291,0 -71.2349720350051,-31.8378800356322,0 -71.235938959514,-31.8319380240318,0 -71.2371029456892,-31.8290539197131,0 -71.2382509319979,-31.8280959474886,0 -71.2404670091266,-31.8279089234545,0 -71.24853631594711,-31.8275687601384,0 -71.2511223811767,-31.8274247048514,0 -71.2535005111467,-31.8262957189869,0 -71.25408348850149,-31.8249526544399,0 -71.2544584476008,-31.8225307381615,0 -71.2545224531593,-31.8214396589643,0 -71.2558764021002,-31.8187986258907,0 -71.257441463608,-31.8172406205241,0 -71.26042546827409,-31.815706552362,0 -71.263441664851,-31.8155045599124,0 -71.26682867094679,-31.8153455131148,0 -71.26924780964561,-31.8159444429237,0 -71.2703548826635,-31.8158254808399,0 -71.27264185345391,-31.8135633801205,0 -71.2725048450305,-31.8117384054038,0 -71.273426789692,-31.8091053815705,0 -71.2743727932714,-31.8074593853826,0 -71.2758178870438,-31.806051391402,0 -71.2767238468404,-31.8052943670785,0 -71.2784298853106,-31.80447333596859,0 -71.2796948820138,-31.8032663195511,0 -71.2799249346929,-31.8025712554583,0 -71.2799048994663,-31.80178128042891,0 -71.2800158888402,-31.7987672420233,0 -71.2799427547898,-31.7970413461715,0 -71.28061272577661,-31.7942142770322,0 -71.28167972264851,-31.792467300498,0 -71.28294278754861,-31.7912102363981,0 -71.28554388052289,-31.7891892201565,0 -71.2873628939555,-31.7879711976503,0 -71.2894669206151,-31.7858101304905,0 -71.29031285180049,-31.7838691086867,0 -71.2904838438796,-31.7808051131664,0 -71.2916868640629,-31.7795991026346,0 -71.2932108676877,-31.7789301415327,0 -71.2972469981286,-31.7776720102589,0 -71.30038010647201,-31.7772699198327,0 -71.3035572481533,-31.7761759445369,0 -71.30581328520741,-31.7751968732802,0 -71.30901830472619,-31.7727188391008,0 -71.3128063886853,-31.7701887470131,0 -71.3152264799365,-31.7683677855063,0 -71.3198505580722,-31.7660136605011,0 -71.32323665933041,-31.763434586842,0 -71.32418466773539,-31.7618876035383,0 -71.3258007182216,-31.7599825406342,0 -71.3267326594157,-31.7578435677449,0 -71.3276526328734,-31.7534825716861,0 -71.329014555445,-31.7477045520428,0 -71.32967949133059,-31.7432385378549,0 -71.3291323387096,-31.7404715571748,0 -71.3297373464308,-31.7384014893767,0 -71.3312713623933,-31.7352134980564,0 -71.33136329308969,-31.7329134467276,0 -71.3298961720697,-31.7292044972785,0 -71.3288871024134,-31.7270685102807,0 -71.3286660024099,-31.7253965746336,0 -71.3285439469867,-31.7229085220701,0 -71.32715389319389,-31.7198695819916,0 -71.32741779386311,-31.7172786017293,0 -71.32730278520209,-31.7150785581482,0 -71.3281636941003,-31.7112795985604,0 -71.3294546666128,-31.7079995492543,0 -71.33248468303211,-31.703778496939,0 -71.3364197945898,-31.701120467234,0 -71.3379258390587,-31.6992733884047,0 -71.3399678838481,-31.6973204012612,0 -71.3418328338755,-31.6955143045043,0 -71.3471829791812,-31.69216028922621,0 -71.3500320329883,-31.6902881648152,0 -71.3543781887078,-31.6874310876671,0 -71.3581972628962,-31.6849660943689,0 -71.3625013815971,-31.6827790004851,0 -71.3668824274049,-31.681308944933,0 -71.3697515307029,-31.6791008980762,0 -71.374749613429,-31.6760878025744,0 -71.3762516524762,-31.6740958092562,0 -71.3775326476286,-31.6704877872691,0 -71.3788636345852,-31.6688357862391,0 -71.38043270599771,-31.6671307463986,0 -71.3820646798717,-31.6656166738431,0 -71.38353266186201,-31.6646316432512,0 -71.38553278475089,-31.6634936060564,0 -71.386931747761,-31.6621745938609,0 -71.3883148365969,-31.6602335643791,0 -71.3895677801647,-31.6578645864013,0 -71.39084586127061,-31.6565005435157,0 -71.392978829429,-31.6558865106195,0 -71.3968949706699,-31.6545114920587,0 -71.3963589766706,-31.6052484721199,0 -71.3906137069971,-31.6034355093577,0 -71.3882716005764,-31.60355555662,0 -71.3845274760948,-31.6038136584771,0 -71.38199836403599,-31.60397368553,0 -71.3792702584485,-31.6036477399139,0 -71.37332404062541,-31.6031188751681,0 -71.37086692018291,-31.6023738317249,0 -71.3685908886757,-31.6013999147197,0 -71.36515665090469,-31.6009739360126,0 -71.3629085806316,-31.6010909499791,0 -71.36050053312169,-31.6023020042575,0 -71.35894150050881,-31.6036860878468,0 -71.35700849443219,-31.6051520936316,0 -71.3541864515895,-31.6057690952644,0 -71.3507133080397,-31.6056822050371,0 -71.3493552687945,-31.6057451656328,0 -71.3475891966464,-31.6063801978806,0 -71.3461201855565,-31.6076492941236,0 -71.34474310240979,-31.6088412751136,0 -71.34296509029249,-31.6090242731786,0 -71.3415939959233,-31.608598294633,0 -71.3401319850562,-31.6082483747389,0 -71.33878288099309,-31.6086873356383,0 -71.3380239219814,-31.6102443783683,0 -71.33532289788479,-31.6119504228538,0 -71.331849780987,-31.6137074793275,0 -71.33015768476849,-31.6135874943386,0 -71.32858565033381,-31.6126005467995,0 -71.32791354639041,-31.6119725353084,0 -71.3272935124115,-31.6115695053722,0 -71.32513852973899,-31.6116845410353,0 -71.32348143125751,-31.6110365634423,0 -71.3221423117937,-31.6100075957672,0 -71.32074822797679,-31.6086396874824,0 -71.31878912253789,-31.6071696479856,0 -71.316311964449,-31.6056337420078,0 -71.3148649689207,-31.60498274853011,0 -71.3134618589222,-31.6051207334366,0 -71.3095018145444,-31.6061708073575,0 -71.3076477859281,-31.607070877569,0 -71.30565770801429,-31.6081609003055,0 -71.2999675047506,-31.6094679241917,0 -71.297341401144,-31.6104180180118,0 -71.2928823030544,-31.6102720565957,0 -71.2910442629672,-31.6099291462099,0 -71.2898561745677,-31.6092731129925,0 -71.2890390867562,-31.6084971441404,0 -71.2874300596901,-31.6078861693658,0 -71.2846319696977,-31.6085381986399,0 -71.2831398869312,-31.6089041898164,0 -71.2793637725316,-31.60889625899519,0 -71.27614663860631,-31.609668321826,0 -71.2735456012341,-31.6106933303453,0 -71.2703765316063,-31.6115404359414,0 -71.2682194086201,-31.6115794935379,0 -71.2664723291194,-31.6110835298736,0 -71.26466125742699,-31.6099105372963,0 -71.2630691726519,-31.608056533965,0 -71.2629351419815,-31.6064025459391,0 -71.26213106510809,-31.6051745741425,0 -71.2605719692797,-31.6046755538927,0 -71.2577248450477,-31.6052526461646,0 -71.2559158459852,-31.6060747089246,0 -71.25298072954629,-31.6069176986291,0 -71.2503116788055,-31.6070777693153,0 -71.24770056485571,-31.606899809957,0 -71.2422822465109,-31.6027768554074,0 -71.24181926228761,-31.6010909097409,0 -71.2421991594592,-31.5993148387157,0 -71.2444372741047,-31.5978078211217,0 -71.245901259158,-31.5962758585684,0 -71.2469553205881,-31.5952407624294,0 -71.2492912884932,-31.5929417590694,0 -71.2525094098531,-31.5902497266383,0 -71.25612849177131,-31.5886426470931,0 -71.2578385153609,-31.5866226193042,0 -71.25767237304549,-31.5816956464371,0 -71.2562832244064,-31.5785216863462,0 -71.254428191012,-31.5754686855455,0 -71.2521620154248,-31.5725526751947,0 -71.25014585121509,-31.569753707456,0 -71.2486857728058,-31.5674628178975,0 -71.247105728195,-31.5666758040495,0 -71.2445185654566,-31.566157836908,0 -71.24475353678829,-31.5629597972334,0 -71.24263334402811,-31.5558578860197,0 -71.24427024750661,-31.5525408094269,0 -71.2431181321585,-31.5467988683243,0 -71.24582713523451,-31.5426178307534,0 -71.2429759602301,-31.5408518457226,0 -71.24345298600279,-31.5379628004332,0 -71.2456870628277,-31.5367647723683,0 -71.2457078450265,-31.5311277785572,0 -71.2481298511796,-31.5247597808349,0 -71.2487608959333,-31.5240447243471,0 -71.2494208326561,-31.5232967674136,0 -71.25115684414639,-31.5208856568744,0 -71.25445785992611,-31.5154106887987,0 -71.2558138255559,-31.5119776575075,0 -71.2562897692446,-31.5065046276699,0 -71.2584637512951,-31.5010026133901,0 -71.2784326072357,-31.5082592571464,0 -71.2802366733665,-31.5075432759459,0 -71.2814126652213,-31.505961253318,0 -71.2823386527607,-31.5040911843753,0 -71.2831556769038,-31.5027111641599,0 -71.28493071460539,-31.5008252044749,0 -71.28743474770511,-31.4989271924427,0 -71.290030700177,-31.4958550639993,0 -71.2943628541976,-31.49177803766189,0 -71.2963238142914,-31.4875470113077,0 -71.29600173249869,-31.4843330179417,0 -71.29516958283919,-31.4800550506957,0 -71.29339646914811,-31.477062045486,0 -71.2920743227116,-31.4725970332708,0 -71.2917482418441,-31.4691880849885,0 -71.29073720772629,-31.4675470765306,0 -71.2896611038333,-31.4657131515091,0 -71.2876720303787,-31.4637971092212,0 -71.2847438803048,-31.4631661980928,0 -71.27985070237909,-31.4615952401463,0 -71.27642249239069,-31.4603873232132,0 -71.274826399906,-31.459635332349,0 -71.2739583782007,-31.4588703187784,0 -71.2733453931633,-31.458588346384,0 -71.2716422441236,-31.4584233937408,0 -71.2703091961699,-31.4585443562942,0 -71.2689802046449,-31.4587634600306,0 -71.26717620379191,-31.4594784531097,0 -71.2653591327315,-31.459608490259,0 -71.2630009864682,-31.4587225490571,0 -71.2607559315862,-31.4587135032943,0 -71.2586258442533,-31.4584585997349,0 -71.25739478995359,-31.457748585036,0 -71.2565767507503,-31.4565435733576,0 -71.25606766057339,-31.4555275799135,0 -71.254274585728,-31.4541446520056,0 -71.2523614606214,-31.4528126979907,0 -71.2506993840023,-31.4518166896365,0 -71.24884334787789,-31.4503377393614,0 -71.24697420807119,-31.4483207062052,0 -71.2459261504025,-31.4476077920985,0 -71.2446110306667,-31.4471917856367,0 -71.2411238982035,-31.4459838331945,0 -71.2391587824592,-31.4449938671155,0 -71.2378138156178,-31.4443289392238,0 -71.23750077102061,-31.4441449069408,0 -71.2367917207133,-31.4424009286073,0 -71.23675063616319,-31.4406939020634,0 -71.2359316341588,-31.4393909053971,0 -71.23438352237829,-31.4381009132572,0 -71.23256447668081,-31.4381329941645,0 -71.2316084096248,-31.4387350068823,0 -71.231265390706,-31.4396680149036,0 -71.23082149175291,-31.4413829570915,0 -71.23025642931469,-31.4431489902722,0 -71.2292134961228,-31.4452169921666,0 -71.2279155058322,-31.4468000446948,0 -71.2262284254477,-31.4473170787513,0 -71.2238053470314,-31.4474571277037,0 -71.2222652916001,-31.4477770849358,0 -71.2191372055064,-31.44895318026339,0 -71.2158671837786,-31.4517902663985,0 -71.21392013322961,-31.454166302084,0 -71.2125861133016,-31.4567742740543,0 -71.2114161527508,-31.458648269673,0 -71.2103521232912,-31.4598383690343,0 -71.2088620793829,-31.460985395778,0 -71.2070660673841,-31.4620413509073,0 -71.204907936176,-31.4632003878025,0 -71.20303992052889,-31.4637694756259,0 -71.20091387548079,-31.4636594797967,0 -71.19949072035941,-31.4625134666254,0 -71.1989186926599,-31.4614005461446,0 -71.1985917116734,-31.4603815384193,0 -71.19770861315889,-31.4589825226463,0 -71.19718956999159,-31.4575275721574,0 -71.1976996067601,-31.4559575338886,0 -71.1983325723285,-31.4544835074165,0 -71.1992885276516,-31.4525644980079,0 -71.19964558845,-31.4518784735657,0 -71.199265544714,-31.4512024929312,0 -71.19857544144929,-31.4502385210456,0 -71.1974444301862,-31.4485985077722,0 -71.1958563906813,-31.4481385204073,0 -71.1947052855531,-31.448206607227,0 -71.19351129491859,-31.4490565926999,0 -71.19268220380241,-31.4499485662434,0 -71.1919751963844,-31.4508396451552,0 -71.1908992111654,-31.451540661177,0 -71.1899821344273,-31.4512636637347,0 -71.188044115087,-31.4496936432426,0 -71.1870700580692,-31.4486787148852,0 -71.1864950026732,-31.4474206486162,0 -71.18590591716161,-31.4455767268767,0 -71.1845378181519,-31.4428257384098,0 -71.1838917580136,-31.4411297028033,0 -71.1828937013304,-31.4399767925616,0 -71.18190459059601,-31.4391637404747,0 -71.1798665708872,-31.4376377757892,0 -71.1786993871212,-31.434390822375,0 -71.176050248987,-31.4299968318344,0 -71.1743631486984,-31.4278798957991,0 -71.1736080939819,-31.4267218636863,0 -71.17224100129761,-31.4253308572269,0 -71.1706968767347,-31.4232399431785,0 -71.16985776749181,-31.4211629487261,0 -71.16844075421849,-31.4203439531182,0 -71.1673956755735,-31.420548974356,0 -71.1657656121079,-31.4205769893386,0 -71.164822571192,-31.4201240030659,0 -71.1613104665656,-31.4194330367784,0 -71.15922445180369,-31.4199371541332,0 -71.1566642791153,-31.420074170063,0 -71.1531761860987,-31.4204141591063,0 -71.1503971177069,-31.4212101854868,0 -71.1483240013779,-31.4222762833181,0 -71.1471820104816,-31.4233262968893,0 -71.1460370711368,-31.4241892812337,0 -71.1453099946613,-31.4229823554754,0 -71.1440038452624,-31.4193493291353,0 -71.1431117730434,-31.4159903208584,0 -71.1438416479306,-31.4122293218041,0 -71.14312958324329,-31.406524321133,0 -71.143571480288,-31.4003303678404,0 -71.1444344357288,-31.3973173141213,0 -71.14513232978,-31.3946813179251,0 -71.1456734039874,-31.3928913163495,0 -71.1459023806117,-31.3927003236463,0 -71.1443543030509,-31.3912263384031,0 -71.1422241046325,-31.3897623132691,0 -71.13925701346879,-31.3873754344484,0 -71.1381709206167,-31.3857064079016,0 -71.13575977104399,-31.3820914106669,0 -71.1347536928569,-31.3788274748854,0 -71.1344965297701,-31.3700224519776,0 -71.1349073747291,-31.3675784552758,0 -71.13549139818311,-31.3655464830435,0 -71.13702837457819,-31.3635134304171,0 -71.1375593879421,-31.3612543859532,0 -71.13843731936871,-31.3588974021899,0 -71.1393093657171,-31.3562583620587,0 -71.1392482508041,-31.3535413300496,0 -71.13816819433811,-31.3521534188319,0 -71.1365021160186,-31.3505884558233,0 -71.1339929614948,-31.3477244651758,0 -71.1323427998144,-31.3442974858517,0 -71.1317128204248,-31.3421524711555,0 -71.13083670712631,-31.3394505030779,0 -71.12972962858819,-31.3368455397697,0 -71.1285404776381,-31.3357404907736,0 -71.12654539418951,-31.3350245659697,0 -71.1251333210664,-31.3343915752969,0 -71.1233652743753,-31.3333906028595,0 -71.1221822582483,-31.3325666262192,0 -71.1193721363871,-31.3318637034385,0 -71.1162149809422,-31.331259691599,0 -71.11098184708879,-31.3315337666694,0 -71.1074927117255,-31.3316848340185,0 -71.1008584167124,-31.3317929931658,0 -71.0967832512182,-31.3317660189865,0 -71.09060405083829,-31.3313991523638,0 -71.0861929377911,-31.3305531644185,0 -71.0857329378571,-31.3334511845657,0 -71.084420931517,-31.3372302406473,0 -71.0834279871994,-31.340874211554,0 -71.08347306159909,-31.3429472785139,0 -71.08287406652551,-31.3449862311179,0 -71.0800979978406,-31.3480933000958,0 -71.0775089743576,-31.3499932809758,0 -71.0758479732108,-31.3525693151536,0 -71.0737079653983,-31.3553253525679,0 -71.0706738303947,-31.3565414781836,0 -71.0651756790446,-31.3579685033828,0 -71.06151858528629,-31.3601015890974,0 -71.0595066153665,-31.362639587885,0 -71.05707352678471,-31.366783671552,0 -71.0545335530759,-31.3709716984573,0 -71.05320558881731,-31.3741037259251,0 -71.0520996371871,-31.3763247544646,0 -71.0497785324505,-31.3782197376103,0 -71.0473404562709,-31.3797277789197,0 -71.0429803873955,-31.3816988609992,0 -71.0392052979378,-31.3834438953766,0 -71.0370152548207,-31.3839970169009,0 -71.0334780974253,-31.384312042744,0 -71.0296789566048,-31.3836811226327,0 -71.0269898063072,-31.3810021279792,0 -71.0226695735155,-31.3748481825616,0 -71.0163351947653,-31.3699362689885,0 -71.0142350530748,-31.3658652841407,0 -71.0131818061991,-31.3592712928192,0 -71.01097467137861,-31.3539483888782,0 -71.00844050823,-31.3496233960491,0 -71.00311620780199,-31.346639506083,0 -70.9974040038696,-31.3456055565365,0 -70.9890826121292,-31.3430127025829,0 -70.9850213971924,-31.3400507394696,0 -70.98359035956619,-31.3383447780751,0 -70.983289304794,-31.3367937995457,0 -70.9832452269943,-31.3346777699208,0 -70.98287419281451,-31.3323497760247,0 -70.9812840354127,-31.3307757808718,0 -70.9789559558409,-31.3297748155503,0 -70.9773238910736,-31.3300158231143,0 -70.9768178592992,-31.3303148935885,0 -70.975470860968,-31.3312548765757,0 -70.9743078309632,-31.3320929141568,0 -70.97253876318121,-31.3322069871331,0 -70.9695767095271,-31.3317339851914,0 -70.9658304751707,-31.3296310642138,0 -70.9587761589719,-31.3259371240532,0 -70.9552720504505,-31.3238731981187,0 -70.952725891434,-31.3227022443183,0 -70.95083481191379,-31.3221262763572,0 -70.94890369152969,-31.3221553447643,0 -70.9474716297827,-31.3229983044223,0 -70.9459466483394,-31.3244903962936,0 -70.9441595985155,-31.3263323724526,0 -70.94198262568661,-31.3274883796299,0 -70.9400614943662,-31.3280354716955,0 -70.9379715042121,-31.3281534688474,0 -70.93449833858401,-31.327601499847,0 -70.93335326712401,-31.3267544976565,0 -70.9322581950703,-31.3256475957133,0 -70.9309821075821,-31.3236355799863,0 -70.9299400449907,-31.3225285774475,0 -70.9276568918894,-31.3210936294673,0 -70.9259869081698,-31.3207726763559,0 -70.9233728046204,-31.3215466829814,0 -70.9200697132982,-31.3227627621159,0 -70.9183946870547,-31.3248617804394,0 -70.9135015816083,-31.3283908305626,0 -70.9118134917296,-31.3297988289587,0 -70.9106195106684,-31.3318479303031,0 -70.91017854759259,-31.3339279298274,0 -70.9092465183621,-31.3355838848013,0 -70.9075595708109,-31.3371209791254,0 -70.9065335004664,-31.3381299235644,0 -70.90683257566801,-31.3396809645643,0 -70.9077906122025,-31.3419138966678,0 -70.90789071903789,-31.3442019847859,0 -70.906528733204,-31.3485429441447,0 -70.9056307322965,-31.3505879603649,0 -70.90443575185481,-31.3525489701909,0 -70.90294672546599,-31.3532630246341,0 -70.9000556443731,-31.3536510951021,0 -70.89650742019219,-31.3534451633755,0 -70.89268332671681,-31.3528102183812,0 -70.8900612170065,-31.3532372172645,0 -70.8873031472117,-31.3549202719234,0 -70.8867231832923,-31.3567862995716,0 -70.88584122198669,-31.36103330946739,0 -70.88582826261251,-31.3630642673764,0 -70.8852943470329,-31.3658812831203,0 -70.8853993681352,-31.368471310605,0 -70.8858314504327,-31.3726502737313,0 -70.8871157312502,-31.3804582577127,0 -70.8884818830351,-31.3883452780434,0 -70.8890910882204,-31.3946443058947,0 -70.88959117955859,-31.3994763038879,0 -70.8895402118161,-31.4023282135729,0 -70.8894762555386,-31.4044902766555,0 -70.8885493007069,-31.4064482902248,0 -70.88628017673339,-31.4071723174293,0 -70.87963100187361,-31.4077453761087,0 -70.8764328713918,-31.4090025067591,0 -70.8726188145362,-31.4116935347313,0 -70.8691527535716,-31.4129976144089,0 -70.8663876817217,-31.4157596695321,0 -70.8638126327653,-31.4186916370228,0 -70.8614906226684,-31.420799725837,0 -70.85308137296239,-31.4248098124746,0 -70.8476542252386,-31.4289069170012,0 -70.84491821684161,-31.4306729578743,0 -70.84335721068619,-31.4330740361321,0 -70.8429612606303,-31.4355110212778,0 -70.8422382140395,-31.4362869966109,0 -70.8414882018144,-31.4364270354768,0 -70.8414262056021,-31.4363719989802,0 -70.840777161646,-31.435789043384,0 -70.8399061137588,-31.4324750770688,0 -70.8388579855261,-31.4282991095545,0 -70.83712483621871,-31.4248241080272,0 -70.8352446813244,-31.4207031483058,0 -70.8339885612976,-31.4196841288091,0 -70.83199948200139,-31.4196261624494,0 -70.8302304812116,-31.4198241953834,0 -70.8286624033238,-31.4192852381508,0 -70.8279903114327,-31.4178682248235,0 -70.82720724814661,-31.4162812202017,0 -70.82556823478301,-31.414878246355,0 -70.8241221190009,-31.4151152527135,0 -70.8206420421122,-31.4157263601789,0 -70.8186599144594,-31.4160133948514,0 -70.8180849088846,-31.4168434238818,0 -70.8162228932306,-31.4177763974041,0 -70.8138368123068,-31.4180264115672,0 -70.8122137471366,-31.4174444578822,0 -70.81014857809249,-31.4161774781115,0 -70.80809858807849,-31.4157315825915,0 -70.8060554214522,-31.4156735245926,0 -70.8039443989323,-31.4147955936026,0 -70.802794283081,-31.4136886297483,0 -70.80259529143299,-31.4117035561616,0 -70.8030561977845,-31.4097956208295,0 -70.8026441954426,-31.4072096077123,0 -70.8013750856929,-31.4054556322621,0 -70.7998299810406,-31.4033176210557,0 -70.7990419316321,-31.4014266733585,0 -70.7984118126969,-31.3994056995123,0 -70.7983918649893,-31.3983256611171,0 -70.7981777464867,-31.3955626775437,0 -70.79903276775779,-31.3924826620371,0 -70.80010371648891,-31.3909126501398,0 -70.8017427534926,-31.3895506146418,0 -70.8037468199802,-31.3876205998566,0 -70.80581888847399,-31.3864685492775,0 -70.80740188176971,-31.3850205239547,0 -70.8078609199342,-31.3837175175786,0 -70.8070377948669,-31.3828215577708,0 -70.8055147394694,-31.3818055495139,0 -70.80377565576261,-31.3807075891406,0 -70.8010795212804,-31.3787576045987,0 -70.79960949182239,-31.3776976552834,0 -70.7985624062929,-31.376286638857,0 -70.7973513453416,-31.3747046165952,0 -70.7959122179842,-31.3724787170001,0 -70.79454412721491,-31.3711147241776,0 -70.7932220831518,-31.3693617427337,0 -70.7915769541881,-31.3689957593531,0 -70.7894319223762,-31.3691117689405,0 -70.78737781904429,-31.3684058522641,0 -70.78660078610331,-31.3670778191544,0 -70.7872807857259,-31.3661178335651,0 -70.78784672315081,-31.3648137602409,0 -70.7877037264399,-31.3629138337171,0 -70.78704263083981,-31.3620598544106,0 -70.7856275178659,-31.36104181984,0 -70.783176417763,-31.3591748904097,0 -70.7807773909356,-31.3572209458402,0 -70.7782652601301,-31.3563909858004,0 -70.77620909067829,-31.3555560072691,0 -70.7743640152937,-31.3545010316744,0 -70.7727149177432,-31.3524500578805,0 -70.7720788632144,-31.3500390177445,0 -70.7705317357441,-31.347684048037,0 -70.76803969320331,-31.3464650528553,0 -70.7637904737219,-31.34604815141491,0 -70.7622283675521,-31.3443412253307,0 -70.761981305711,-31.3425732143178,0 -70.76194527655581,-31.3406291866417,0 -70.7622292749522,-31.338594160389,0 -70.7627802822953,-31.3365131686922,0 -70.762622175682,-31.33379312535691,0 -70.76180513742619,-31.3316871682817,0 -70.76049101555149,-31.3302791842219,0 -70.7579928879279,-31.3287582397753,0 -70.75579479693521,-31.3288743039209,0 -70.7534537562952,-31.3299862721635,0 -70.7511046427867,-31.3306663121873,0 -70.7489066177051,-31.3307834258207,0 -70.7470664903551,-31.3299874190948,0 -70.74569541468971,-31.3284074012696,0 -70.74473943000621,-31.3260434012568,0 -70.7439153375221,-31.3250174703136,0 -70.74180420339739,-31.3240094705543,0 -70.7400611558336,-31.3240765036224,0 -70.73721500990931,-31.3240285405485,0 -70.73501895653639,-31.3242745568465,0 -70.73291188946931,-31.3234815907476,0 -70.7315848256673,-31.3213826456524,0 -70.73148674691301,-31.3189636751734,0 -70.7314376823509,-31.3162426326074,0 -70.7317696569981,-31.3138616121097,0 -70.7317915868484,-31.3121326365628,0 -70.7299314793942,-31.3087446587943,0 -70.727823371342,-31.30790866842811,0 -70.7253152474108,-31.3086767762729,0 -70.72363022715621,-31.3104277326335,0 -70.7217862740751,-31.3123107790749,0 -70.7199852226383,-31.3135878353402,0 -70.71702108892229,-31.315873906747,0 -70.7144901045598,-31.3183708907303,0 -70.7122790408191,-31.32073393889589,0 -70.71005703616309,-31.3240039713431,0 -70.7089180586302,-31.3263090172762,0 -70.70733804238451,-31.3279720354964,0 -70.7060690167088,-31.3290690660966,0 -70.7045759944603,-31.329565031347,0 -70.703729974868,-31.3303100199227,0 -70.70380900038541,-31.3316920637819,0 -70.70517803695461,-31.333229089259,0 -70.7077622418968,-31.3351390093082,0 -70.7091442753884,-31.337324955262,0 -70.71089538342,-31.339202974322,0 -70.7108713891441,-31.3408449948933,0 -70.708795397657,-31.3418230098323,0 -70.7066002929149,-31.3421550521056,0 -70.7043152864757,-31.34339505195049,0 -70.7034641837525,-31.3438821054574,0 -70.7019611354031,-31.3438581202191,0 -70.69984903843481,-31.3428491575009,0 -70.6977439520483,-31.3421862165672,0 -70.6958618975701,-31.3420381628184,0 -70.693770883574,-31.3421522059312,0 -70.6912117158072,-31.3431362289512,0 -70.6883076448632,-31.3428723586186,0 -70.6872055985373,-31.3412883400429,0 -70.6847044590416,-31.3394623502393,0 -70.67535400847009,-31.334356556263,0 -70.6707778616249,-31.3335955781844,0 -70.666208620974,-31.3332226891973,0 -70.66150743592181,-31.3314687055622,0 -70.65754523769129,-31.3304827856691,0 -70.6540261587503,-31.3287568027207,0 -70.6498578677286,-31.3267368780027,0 -70.6478827881126,-31.3242559323692,0 -70.64557968967659,-31.3214759479391,0 -70.64441560123311,-31.3193309512267,0 -70.6428883972719,-31.316368960626,0 -70.6422254648576,-31.3152969822707,0 -70.6403812979482,-31.3141540477572,0 -70.637583183866,-31.313714078659,0 -70.63446208503559,-31.3132361322575,0 -70.6306878849766,-31.3122471436985,0 -70.6279947771711,-31.3116761863396,0 -70.6245736697897,-31.3092992352122,0 -70.6185213475156,-31.3053143548365,0 -70.6136000651008,-31.3030424256736,0 -70.61216803594979,-31.3009004758604,0 -70.61103488511721,-31.2973714504027,0 -70.6103068146173,-31.2940094706612,0 -70.61011077492989,-31.2919384877757,0 -70.6099607404682,-31.2894334789824,0 -70.60864659945049,-31.2878514784891,0 -70.6028693798156,-31.2857195548963,0 -70.5971349968942,-31.2813406333303,0 -70.5956140080601,-31.2801927180325,0 -70.592911863065,-31.279016776692,0 -70.5909187743284,-31.2785227611103,0 -70.5882987224507,-31.2790297821369,0 -70.58664456947869,-31.2796127963899,0 -70.585036546517,-31.2796758421324,0 -70.5836915519458,-31.2794328933513,0 -70.5823964274167,-31.2789738906771,0 -70.5816193940598,-31.2790698693784,0 -70.5813694085239,-31.2801528903006,0 -70.5806414924711,-31.2815449009019,0 -70.578737450399,-31.2831669727647,0 -70.57493631535991,-31.286886000884,0 -70.57185629490679,-31.2887821025276,0 -70.5696151973719,-31.289544116004,0 -70.5663971078843,-31.2895831320843,0 -70.5638079353854,-31.2887942000265,0 -70.5614469268035,-31.2887792604596,0 -70.55917977518391,-31.289541212633,0 -70.55861888932451,-31.2913202570881,0 -70.55814095582249,-31.2949122923072,0 -70.5571159279863,-31.2978202830542,0 -70.5561859943619,-31.3032763469082,0 -70.5562360159614,-31.3047013661495,0 -70.55571800346721,-31.3058313394028,0 -70.5534150118815,-31.3060753638626,0 -70.5485778024738,-31.3056154344133,0 -70.5441586562892,-31.3045995390125,0 
					</coordinates>
				</LinearRing>
			</outerBoundaryIs>
		</Polygon>
		<atom:link rel="app" href="https://www.google.com/earth/about/versions/#earth-pro" title="Google Earth Pro 7.3.7.1155"></atom:link>
	</Placemark>
</Document>
</kml>
